[{"OBJECT_NAME":"STARLINK-35178","OBJECT_ID":"2025-207U","EPOCH":"2026-03-09T17:04:43.455648","MEAN_MOTION":15.0564559,"ECCENTRICITY":9.487e-5,"INCLINATION":97.6026,"RA_OF_ASC_NODE":138.6688,"ARG_OF_PERICENTER":99.8211,"MEAN_ANOMALY":260.3123,"EPHEMERIS_TYPE":0,"CLASSIFICATION_TYPE":"U","NORAD_CAT_ID":65610,"ELEMENT_SET_NO":999,"REV_AT_EPOCH":2826,"BSTAR":0.00032139249,"MEAN_MOTION_DOT":4.579e-5,"MEAN_MOTION_DDOT":0},{"OBJECT_NAME":"FENGYUN 1C DEB","OBJECT_ID":"1999-025AVL","EPOCH":"2026-03-06T12:53:29.086080","MEAN_MOTION":14.83381217,"ECCENTRICITY":0.01434433,"INCLINATION":98.8652,"RA_OF_ASC_NODE":274.6705,"ARG_OF_PERICENTER":90.518,"MEAN_ANOMALY":301.133,"EPHEMERIS_TYPE":0,"CLASSIFICATION_TYPE":"U","NORAD_CAT_ID":30826,"ELEMENT_SET_NO":999,"REV_AT_EPOCH":1528,"BSTAR":0.00060190522,"MEAN_MOTION_DOT":5.85e-5,"MEAN_MOTION_DDOT":0}]
